{
  "norad_id": 61019,
  "name": "GEESAT-3 09",
  "history": [
    {
      "epoch": "2026-03-28T22:21:03.157920",
      "apogee_km": 632.4011604205789,
      "perigee_km": 601.591515341881,
      "latitude_deg": 35.6857190018493,
      "longitude_deg": 11.303508799755946,
      "semi_major_axis_km": 6995.13333788123,
      "eccentricity": 0.00220222,
      "inclination_deg": 49.9959,
      "raan_deg": 94.8856,
      "arg_perigee_deg": 112.072,
      "mean_anomaly_deg": 248.256,
      "mean_motion_rev_day": 14.83914116
    },
    {
      "epoch": "2026-03-29T04:48:56.131488",
      "apogee_km": 632.3972028764356,
      "perigee_km": 601.5752908261593,
      "latitude_deg": 18.235152435763958,
      "longitude_deg": 37.162368319928646,
      "semi_major_axis_km": 6995.123246851297,
      "eccentricity": 0.0022031,
      "inclination_deg": 49.9958,
      "raan_deg": 93.6367,
      "arg_perigee_deg": 113.1213,
      "mean_anomaly_deg": 247.205,
      "mean_motion_rev_day": 14.83917327
    }
  ]
}